[{"OBJECT_NAME":"ONEWEB-0576","OBJECT_ID":"2023-043V","EPOCH":"2025-12-06T13:28:16.425408","MEAN_MOTION":13.16593799,"ECCENTRICITY":0.0001667,"INCLINATION":87.9045,"RA_OF_ASC_NODE":267.1264,"ARG_OF_PERICENTER":82.737,"MEAN_ANOMALY":277.395,"EPHEMERIS_TYPE":0,"CLASSIFICATION_TYPE":"U","NORAD_CAT_ID":56065,"ELEMENT_SET_NO":999,"REV_AT_EPOCH":13361,"BSTAR":0.00030565893,"MEAN_MOTION_DOT":1.3e-6,"MEAN_MOTION_DDOT":0},{"OBJECT_NAME":"ONEWEB-0577","OBJECT_ID":"2023-043W","EPOCH":"2025-12-06T13:37:23.461824","MEAN_MOTION":13.16594528,"ECCENTRICITY":0.00018812,"INCLINATION":87.9046,"RA_OF_ASC_NODE":267.1245,"ARG_OF_PERICENTER":100.2715,"MEAN_ANOMALY":259.8628,"EPHEMERIS_TYPE":0,"CLASSIFICATION_TYPE":"U","NORAD_CAT_ID":56066,"ELEMENT_SET_NO":999,"REV_AT_EPOCH":13364,"BSTAR":0.00016310673,"MEAN_MOTION_DOT":7.5e-7,"MEAN_MOTION_DDOT":0},{"OBJECT_NAME":"ONEWEB-0578","OBJECT_ID":"2023-043X","EPOCH":"2025-12-06T14:34:30.654336","MEAN_MOTION":13.21827722,"ECCENTRICITY":0.00015323,"INCLINATION":87.9214,"RA_OF_ASC_NODE":282.3849,"ARG_OF_PERICENTER":77.9881,"MEAN_ANOMALY":282.1424,"EPHEMERIS_TYPE":0,"CLASSIFICATION_TYPE":"U","NORAD_CAT_ID":56067,"ELEMENT_SET_NO":999,"REV_AT_EPOCH":13279,"BSTAR":-0.00010694409,"MEAN_MOTION_DOT":-3.1e-7,"MEAN_MOTION_DDOT":0},{"OBJECT_NAME":"ONEWEB-0579","OBJECT_ID":"2023-043Y","EPOCH":"2025-12-06T14:20:16.196352","MEAN_MOTION":13.21825393,"ECCENTRICITY":0.0002078,"INCLINATION":87.9212,"RA_OF_ASC_NODE":282.374,"ARG_OF_PERICENTER":75.6768,"MEAN_ANOMALY":284.4596,"EPHEMERIS_TYPE":0,"CLASSIFICATION_TYPE":"U","NORAD_CAT_ID":56068,"ELEMENT_SET_NO":999,"REV_AT_EPOCH":13280,"BSTAR":-0.0012980121,"MEAN_MOTION_DOT":-5.23e-6,"MEAN_MOTION_DDOT":0},{"OBJECT_NAME":"ONEWEB-0581","OBJECT_ID":"2023-043Z","EPOCH":"2025-12-06T11:57:05.047776","MEAN_MOTION":13.16595196,"ECCENTRICITY":0.00019003,"INCLINATION":87.9042,"RA_OF_ASC_NODE":267.1521,"ARG_OF_PERICENTER":87.5573,"MEAN_ANOMALY":272.5776,"EPHEMERIS_TYPE":0,"CLASSIFICATION_TYPE":"U","NORAD_CAT_ID":56069,"ELEMENT_SET_NO":999,"REV_AT_EPOCH":13360,"BSTAR":8.8894637e-5,"MEAN_MOTION_DOT":4.7e-7,"MEAN_MOTION_DDOT":0},{"OBJECT_NAME":"ONEWEB-0609","OBJECT_ID":"2023-043AA","EPOCH":"2025-12-06T14:33:31.070304","MEAN_MOTION":13.1554889,"ECCENTRICITY":0.00018075,"INCLINATION":87.8986,"RA_OF_ASC_NODE":297.6456,"ARG_OF_PERICENTER":78.0099,"MEAN_ANOMALY":282.1234,"EPHEMERIS_TYPE":0,"CLASSIFICATION_TYPE":"U","NORAD_CAT_ID":56070,"ELEMENT_SET_NO":999,"REV_AT_EPOCH":13111,"BSTAR":-0.00020373564,"MEAN_MOTION_DOT":-6.4e-7,"MEAN_MOTION_DDOT":0},{"OBJECT_NAME":"ONEWEB-0613","OBJECT_ID":"2023-043AB","EPOCH":"2025-12-06T14:26:40.209792","MEAN_MOTION":13.15550183,"ECCENTRICITY":0.0002015,"INCLINATION":87.8984,"RA_OF_ASC_NODE":297.6585,"ARG_OF_PERICENTER":75.0832,"MEAN_ANOMALY":285.0521,"EPHEMERIS_TYPE":0,"CLASSIFICATION_TYPE":"U","NORAD_CAT_ID":56071,"ELEMENT_SET_NO":999,"REV_AT_EPOCH":13111,"BSTAR":0.00010302189,"MEAN_MOTION_DOT":5.2e-7,"MEAN_MOTION_DDOT":0},{"OBJECT_NAME":"ONEWEB-0630","OBJECT_ID":"2023-043AC","EPOCH":"2025-12-06T03:22:41.206080","MEAN_MOTION":13.15548863,"ECCENTRICITY":0.00020279,"INCLINATION":87.8984,"RA_OF_ASC_NODE":297.722,"ARG_OF_PERICENTER":76.0017,"MEAN_ANOMALY":284.1339,"EPHEMERIS_TYPE":0,"CLASSIFICATION_TYPE":"U","NORAD_CAT_ID":56072,"ELEMENT_SET_NO":999,"REV_AT_EPOCH":13104,"BSTAR":-0.00058805188,"MEAN_MOTION_DOT":-2.09e-6,"MEAN_MOTION_DDOT":0},{"OBJECT_NAME":"ONEWEB-0632","OBJECT_ID":"2023-043AD","EPOCH":"2025-12-06T14:12:58.023936","MEAN_MOTION":13.15549287,"ECCENTRICITY":0.00019297,"INCLINATION":87.8982,"RA_OF_ASC_NODE":297.6502,"ARG_OF_PERICENTER":85.1619,"MEAN_ANOMALY":274.9731,"EPHEMERIS_TYPE":0,"CLASSIFICATION_TYPE":"U","NORAD_CAT_ID":56073,"ELEMENT_SET_NO":999,"REV_AT_EPOCH":13110,"BSTAR":-6.1018806e-5,"MEAN_MOTION_DOT":-1.0e-7,"MEAN_MOTION_DDOT":0},{"OBJECT_NAME":"ONEWEB-0633","OBJECT_ID":"2023-043AE","EPOCH":"2025-12-06T14:03:51.061824","MEAN_MOTION":13.15549229,"ECCENTRICITY":0.00020361,"INCLINATION":87.8981,"RA_OF_ASC_NODE":297.6148,"ARG_OF_PERICENTER":70.1485,"MEAN_ANOMALY":289.9864,"EPHEMERIS_TYPE":0,"CLASSIFICATION_TYPE":"U","NORAD_CAT_ID":56074,"ELEMENT_SET_NO":999,"REV_AT_EPOCH":13108,"BSTAR":0.00025572952,"MEAN_MOTION_DOT":1.09e-6,"MEAN_MOTION_DDOT":0},{"OBJECT_NAME":"ONEWEB-0634","OBJECT_ID":"2023-043AF","EPOCH":"2025-12-06T11:53:47.832864","MEAN_MOTION":13.15548142,"ECCENTRICITY":0.00016072,"INCLINATION":87.8988,"RA_OF_ASC_NODE":297.6822,"ARG_OF_PERICENTER":72.7025,"MEAN_ANOMALY":287.4281,"EPHEMERIS_TYPE":0,"CLASSIFICATION_TYPE":"U","NORAD_CAT_ID":56075,"ELEMENT_SET_NO":999,"REV_AT_EPOCH":13106,"BSTAR":0.00041384501,"MEAN_MOTION_DOT":1.69e-6,"MEAN_MOTION_DDOT":0},{"OBJECT_NAME":"ONEWEB-0635","OBJECT_ID":"2023-043AG","EPOCH":"2025-12-06T08:07:53.128704","MEAN_MOTION":13.1555038,"ECCENTRICITY":0.00019139,"INCLINATION":87.898,"RA_OF_ASC_NODE":297.6679,"ARG_OF_PERICENTER":88.9472,"MEAN_ANOMALY":271.1877,"EPHEMERIS_TYPE":0,"CLASSIFICATION_TYPE":"U","NORAD_CAT_ID":56076,"ELEMENT_SET_NO":999,"REV_AT_EPOCH":13107,"BSTAR":0.00072239388,"MEAN_MOTION_DOT":2.85e-6,"MEAN_MOTION_DDOT":0},{"OBJECT_NAME":"ONEWEB-0636","OBJECT_ID":"2023-043AH","EPOCH":"2025-12-06T07:56:28.842432","MEAN_MOTION":13.15550091,"ECCENTRICITY":0.00018802,"INCLINATION":87.8979,"RA_OF_ASC_NODE":297.6872,"ARG_OF_PERICENTER":87.5633,"MEAN_ANOMALY":272.5713,"EPHEMERIS_TYPE":0,"CLASSIFICATION_TYPE":"U","NORAD_CAT_ID":56077,"ELEMENT_SET_NO":999,"REV_AT_EPOCH":13105,"BSTAR":0.00059392299,"MEAN_MOTION_DOT":2.36e-6,"MEAN_MOTION_DDOT":0},{"OBJECT_NAME":"ONEWEB-0637","OBJECT_ID":"2023-043AJ","EPOCH":"2025-12-06T07:47:22.066080","MEAN_MOTION":13.15549896,"ECCENTRICITY":0.00015478,"INCLINATION":87.8981,"RA_OF_ASC_NODE":297.7045,"ARG_OF_PERICENTER":85.1153,"MEAN_ANOMALY":275.0154,"EPHEMERIS_TYPE":0,"CLASSIFICATION_TYPE":"U","NORAD_CAT_ID":56078,"ELEMENT_SET_NO":999,"REV_AT_EPOCH":13107,"BSTAR":0.00051179384,"MEAN_MOTION_DOT":2.06e-6,"MEAN_MOTION_DDOT":0},{"OBJECT_NAME":"ONEWEB-0647","OBJECT_ID":"2023-043AK","EPOCH":"2025-12-06T07:40:31.560672","MEAN_MOTION":13.15548594,"ECCENTRICITY":0.00019575,"INCLINATION":87.8979,"RA_OF_ASC_NODE":297.7189,"ARG_OF_PERICENTER":82.5613,"MEAN_ANOMALY":277.5739,"EPHEMERIS_TYPE":0,"CLASSIFICATION_TYPE":"U","NORAD_CAT_ID":56079,"ELEMENT_SET_NO":999,"REV_AT_EPOCH":13106,"BSTAR":0.00038580034,"MEAN_MOTION_DOT":1.58e-6,"MEAN_MOTION_DDOT":0},{"OBJECT_NAME":"ONEWEB-0651","OBJECT_ID":"2023-043AL","EPOCH":"2025-12-06T14:51:45.456768","MEAN_MOTION":13.15549995,"ECCENTRICITY":0.0001783,"INCLINATION":87.8985,"RA_OF_ASC_NODE":297.652,"ARG_OF_PERICENTER":89.7965,"MEAN_ANOMALY":270.3369,"EPHEMERIS_TYPE":0,"CLASSIFICATION_TYPE":"U","NORAD_CAT_ID":56080,"ELEMENT_SET_NO":999,"REV_AT_EPOCH":13230,"BSTAR":-8.052659e-5,"MEAN_MOTION_DOT":-1.7e-7,"MEAN_MOTION_DDOT":0},{"OBJECT_NAME":"ONEWEB-0718","OBJECT_ID":"2023-043AM","EPOCH":"2025-12-06T14:44:55.440384","MEAN_MOTION":13.15548078,"ECCENTRICITY":0.00014736,"INCLINATION":87.8984,"RA_OF_ASC_NODE":297.6335,"ARG_OF_PERICENTER":64.5669,"MEAN_ANOMALY":295.5614,"EPHEMERIS_TYPE":0,"CLASSIFICATION_TYPE":"U","NORAD_CAT_ID":56081,"ELEMENT_SET_NO":999,"REV_AT_EPOCH":13111,"BSTAR":-0.00014937143,"MEAN_MOTION_DOT":-4.3e-7,"MEAN_MOTION_DDOT":0},{"OBJECT_NAME":"ONEWEB-0561","OBJECT_ID":"2023-068A","EPOCH":"2025-12-06T07:42:12.284928","MEAN_MOTION":13.20774162,"ECCENTRICITY":0.00021864,"INCLINATION":87.9185,"RA_OF_ASC_NODE":312.914,"ARG_OF_PERICENTER":93.186,"MEAN_ANOMALY":266.9524,"EPHEMERIS_TYPE":0,"CLASSIFICATION_TYPE":"U","NORAD_CAT_ID":56710,"ELEMENT_SET_NO":999,"REV_AT_EPOCH":12404,"BSTAR":0.00028093528,"MEAN_MOTION_DOT":1.27e-6,"MEAN_MOTION_DDOT":0},{"OBJECT_NAME":"ONEWEB-0668","OBJECT_ID":"2023-068B","EPOCH":"2025-12-06T13:10:03.139680","MEAN_MOTION":13.16595486,"ECCENTRICITY":0.00012203,"INCLINATION":87.9052,"RA_OF_ASC_NODE":267.114,"ARG_OF_PERICENTER":67.1275,"MEAN_ANOMALY":292.9985,"EPHEMERIS_TYPE":0,"CLASSIFICATION_TYPE":"U","NORAD_CAT_ID":56711,"ELEMENT_SET_NO":999,"REV_AT_EPOCH":12643,"BSTAR":0.00019763989,"MEAN_MOTION_DOT":8.8e-7,"MEAN_MOTION_DDOT":0},{"OBJECT_NAME":"ONEWEB-0676","OBJECT_ID":"2023-068C","EPOCH":"2025-12-06T13:21:27.241920","MEAN_MOTION":13.16597232,"ECCENTRICITY":0.00020409,"INCLINATION":87.9039,"RA_OF_ASC_NODE":267.1352,"ARG_OF_PERICENTER":72.9463,"MEAN_ANOMALY":287.1892,"EPHEMERIS_TYPE":0,"CLASSIFICATION_TYPE":"U","NORAD_CAT_ID":56712,"ELEMENT_SET_NO":999,"REV_AT_EPOCH":12635,"BSTAR":-0.001593114,"MEAN_MOTION_DOT":-5.96e-6,"MEAN_MOTION_DDOT":0},{"OBJECT_NAME":"ONEWEB-0677","OBJECT_ID":"2023-068D","EPOCH":"2025-12-06T09:15:24.197472","MEAN_MOTION":13.20771048,"ECCENTRICITY":0.00017669,"INCLINATION":87.9196,"RA_OF_ASC_NODE":312.8837,"ARG_OF_PERICENTER":89.4799,"MEAN_ANOMALY":270.6537,"EPHEMERIS_TYPE":0,"CLASSIFICATION_TYPE":"U","NORAD_CAT_ID":56713,"ELEMENT_SET_NO":999,"REV_AT_EPOCH":12435,"BSTAR":-7.6356701e-5,"MEAN_MOTION_DOT":-1.8e-7,"MEAN_MOTION_DDOT":0},{"OBJECT_NAME":"ONEWEB-0678","OBJECT_ID":"2023-068E","EPOCH":"2025-12-06T13:59:17.509056","MEAN_MOTION":13.15548814,"ECCENTRICITY":0.00021105,"INCLINATION":87.8992,"RA_OF_ASC_NODE":297.615,"ARG_OF_PERICENTER":78.5792,"MEAN_ANOMALY":281.5575,"EPHEMERIS_TYPE":0,"CLASSIFICATION_TYPE":"U","NORAD_CAT_ID":56714,"ELEMENT_SET_NO":999,"REV_AT_EPOCH":12396,"BSTAR":0.00028185397,"MEAN_MOTION_DOT":1.19e-6,"MEAN_MOTION_DDOT":0},{"OBJECT_NAME":"ONEWEB-0679","OBJECT_ID":"2023-068F","EPOCH":"2025-12-06T12:22:08.260896","MEAN_MOTION":13.16594167,"ECCENTRICITY":0.00012835,"INCLINATION":87.9038,"RA_OF_ASC_NODE":267.1269,"ARG_OF_PERICENTER":88.0002,"MEAN_ANOMALY":272.1276,"EPHEMERIS_TYPE":0,"CLASSIFICATION_TYPE":"U","NORAD_CAT_ID":56715,"ELEMENT_SET_NO":999,"REV_AT_EPOCH":12637,"BSTAR":-7.2534682e-5,"MEAN_MOTION_DOT":-1.5e-7,"MEAN_MOTION_DDOT":0}]
